{"type":"FeatureCollection","features":[{"type":"Feature","geometry":{"type":"Point","coordinates":[-7.251444,52.650625]},"properties":{"name":"FCI Kilkenny","addr":"Butler Court, 14 Patrick Street, Kilkenny","county":"Kilkenny","phone":"056 7721424","eircode":"R95 FT9X","serves":"Carlow, Kilkenny","loc":"town"}},{"type":"Feature","geometry":{"type":"Point","coordinates":[-7.363368,53.990071]},"properties":{"name":"FCI Cavan","addr":"Farnham Street, Cavan","county":"Cavan","phone":"042 9740423","eircode":"H12 D1W7","serves":"Cavan","loc":"address"}},{"type":"Feature","geometry":{"type":"Point","coordinates":[-8.976184,52.860151]},"properties":{"name":"FCI Ennis","addr":"Suite 21, Clare Technology Park, Ennis","county":"Clare","phone":"065 6866515","eircode":"V95 E970","serves":"Clare, Tipperary North","loc":"address"}},{"type":"Feature","geometry":{"type":"Point","coordinates":[-8.472642,51.898514]},"properties":{"name":"FCI Cork (South Mall)","addr":"Republic Of Work, 12 South Mall, Cork","county":"Cork","phone":"021 4806398","eircode":"T12 RD43","serves":"Cork","loc":"town"}},{"type":"Feature","geometry":{"type":"Point","coordinates":[-8.471753,54.266328]},"properties":{"name":"FCI Sligo","addr":"53 St Brigid's Place, Sligo","county":"Sligo","phone":"071 9143128","eircode":"F91 YY59","serves":"Donegal, Leitrim, Sligo","loc":"address"}},{"type":"Feature","geometry":{"type":"Point","coordinates":[-6.254428,53.343706]},"properties":{"name":"FCI Dublin (Citywest)","addr":"Unit 8, 4075 Kingswood Road, Citywest Business Campus, Dublin 24","county":"Dublin","phone":"01 9068897","eircode":"D24 F212","serves":"Dublin North, Dublin South, Kildare, Wicklow","loc":"town"}},{"type":"Feature","geometry":{"type":"Point","coordinates":[-9.036949,53.28318]},"properties":{"name":"FCI Tuam","addr":"St. Jarlath's Court, The Glebe, Tuam","county":"Galway","phone":"093 30061","eircode":"H54 HP08","serves":"Galway","loc":"town"}},{"type":"Feature","geometry":{"type":"Point","coordinates":[-8.476156,51.896763]},"properties":{"name":"FCI Cork (Tuckey Street)","addr":"9 Tuckey Street, Cork","county":"Cork","phone":"066 7107357","eircode":"T12 WF2P","serves":"Kerry","loc":"address"}},{"type":"Feature","geometry":{"type":"Point","coordinates":[-7.49001,53.275524]},"properties":{"name":"FCI Tullamore","addr":"Market Square, Tullamore","county":"Offaly","phone":"057 9351999","eircode":"R35 PW50","serves":"Laois, Offaly","loc":"address"}},{"type":"Feature","geometry":{"type":"Point","coordinates":[-8.630124,52.661252]},"properties":{"name":"FCI Limerick","addr":"Unit 1, Georges Quay House, Georges Quay, Limerick","county":"Limerick","phone":"061 310434","eircode":"V94 CK06","serves":"Limerick","loc":"town"}},{"type":"Feature","geometry":{"type":"Point","coordinates":[-7.341304,53.525822]},"properties":{"name":"FCI Mullingar","addr":"First Floor, Harbour House, Harbour Street, Mullingar","county":"Westmeath","phone":"044 9347922","eircode":"N91 DE72","serves":"Longford, Westmeath","loc":"town"}},{"type":"Feature","geometry":{"type":"Point","coordinates":[-8.19068,53.631245]},"properties":{"name":"FCI Roscommon","addr":"19 Abbey Street, Roscommon Town","county":"Roscommon","phone":"094 9041148","eircode":"F42 H264","serves":"Mayo, Roscommon","loc":"town"}},{"type":"Feature","geometry":{"type":"Point","coordinates":[-6.740443,54.120215]},"properties":{"name":"FCI Castleblayney","addr":"The Lodge, Shercock Road, Castleblayney","county":"Monaghan","phone":"042 9740423","eircode":"A75 PD83","serves":"Monaghan","loc":"town"}},{"type":"Feature","geometry":{"type":"Point","coordinates":[-7.699124,52.361082]},"properties":{"name":"FCI Clonmel","addr":"Place4U Building, 25 Gladstone Street, Clonmel","county":"Tipperary","phone":"052 7447101","eircode":"E91 HK51","serves":"Tipperary South","loc":"town"}},{"type":"Feature","geometry":{"type":"Point","coordinates":[-6.460134,52.337344]},"properties":{"name":"FCI Wexford","addr":"24 Henrietta Street, Wexford","county":"Wexford","phone":"053 9140511","eircode":"Y35 WC59","serves":"Wexford","loc":"address"}},{"type":"Feature","geometry":{"type":"Point","coordinates":[-7.111908,52.261]},"properties":{"name":"FCI Waterford","addr":"Waterford","county":"Waterford","phone":"051 872626","eircode":"","serves":"Waterford","loc":"address"}}]}