{"type":"FeatureCollection","features":[{"type":"Feature","geometry":{"type":"Point","coordinates":[-8.492989,54.253367]},"properties":{"name":"Irish Home Care","addr":"Unit 11, Block E, Strand Campus, Airport Road, Strandhill, Co Sligo. F91 VY92","county":"Sligo","phone":"071 9139011","website":"www.irishhomecare.ie","eircode":"F91 VY92","loc":"town"}},{"type":"Feature","geometry":{"type":"Point","coordinates":[-6.245577,53.38605]},"properties":{"name":"Komfort Kare","addr":"37 Northwood Court, Block 4, Santry, Dublin 9. D09 KN66","county":"","phone":"01 6933442","website":"www.komfortkare.ie","eircode":"D09 KN66","loc":"town"}},{"type":"Feature","geometry":{"type":"Point","coordinates":[-8.492989,54.253367]},"properties":{"name":"Family Carers Ireland","addr":"Unit 19, Block E, Socolab Campus, Strandhill, Co. Sligo. F91 FE8N","county":"Sligo","phone":"071 9143128","website":"www.familycarers.ie","eircode":"F91 FE8N","loc":"town"}},{"type":"Feature","geometry":{"type":"Point","coordinates":[-7.919348,53.829985]},"properties":{"name":"Tarasis Healthcare","addr":"Unit 18, Roscommon Business Park, Racecourse Road, Roscommon Town, Co. Roscommon. F42 V092","county":"Roscommon","phone":"042 9324688","website":"www.tarasis.com","eircode":"F42 V092","loc":"town"}},{"type":"Feature","geometry":{"type":"Point","coordinates":[-9.04906,53.274412]},"properties":{"name":"Comfort Keepers","addr":"Unit 1, Liosban Industrial Estate, Tuam Road, Galway. H91 X652","county":"","phone":"091 455100","website":"www.comfortkeepers.ie","eircode":"H91 X652","loc":"town"}},{"type":"Feature","geometry":{"type":"Point","coordinates":[-7.952385,54.920754]},"properties":{"name":"Platinum Home Care","addr":"Larkin House, Old Town Letterkenny, Co Donegal. F92 NT29","county":"Donegal","phone":"086 6868976 / 074 9757012","website":"www.platinumhomecare.ie","eircode":"F92 NT29","loc":"town"}},{"type":"Feature","geometry":{"type":"Point","coordinates":[-7.952385,54.920754]},"properties":{"name":"Irish Wheelchair Association","addr":"Glenview, Carnamogagh Upper, Letterkenny, Co Donegal. F92 EW99","county":"Donegal","phone":"074 9177448","website":"www.iwa.ie","eircode":"F92 EW99","loc":"town"}},{"type":"Feature","geometry":{"type":"Point","coordinates":[-8.470606,54.270696]},"properties":{"name":"Atlantic Healthcare Ltd","addr":"Abbey Street, Sligo, Co. Sligo. F91 X260","county":"Sligo","phone":"071 9100209","website":"www.atlanticcare.ie","eircode":"F91 X260","loc":"address"}},{"type":"Feature","geometry":{"type":"Point","coordinates":[-9.07506,53.293634]},"properties":{"name":"Arch Home Care","addr":"The Arch, Northgate Street, Athenry, Co Galway. H65 YK54","county":"Galway","phone":"091 706690","website":"www.archhealth.ie","eircode":"H65 YK54","loc":"town"}},{"type":"Feature","geometry":{"type":"Point","coordinates":[-7.807247,54.054601]},"properties":{"name":"Connected Health","addr":"Unit 4, Block C, Mercantile Plaza, Bridge St, Carrick-On-Shannon, Co Leitrim. N41 NF83","county":"Leitrim","phone":"091 474110","website":"www.connected-health.ie","eircode":"N41 NF83","loc":"town"}},{"type":"Feature","geometry":{"type":"Point","coordinates":[-7.952385,54.920754]},"properties":{"name":"Bluebird Care (Donegal & Leitrim)","addr":"21 Academy Court, Oliver Plunkett Road, Letterkenny, Co Donegal. F92 EET3","county":"Donegal","phone":"074 9129562","website":"www.bluebirdcare.ie/donegal-","eircode":"F92 EET3","loc":"town"}},{"type":"Feature","geometry":{"type":"Point","coordinates":[-8.473712,54.270515]},"properties":{"name":"Westcare Homecare","addr":"Old Bank Building, O'Connell Street, Sligo. F91 VAK2","county":"","phone":"071 9146768","website":"www.westcarehomecare.ie","eircode":"F91 VAK2","loc":"town"}},{"type":"Feature","geometry":{"type":"Point","coordinates":[-7.952385,54.920754]},"properties":{"name":"Dovida","addr":"2nd Floor, Riverfront House, Pearse Road, Letterkenny, Co Donegal. F92 T68V","county":"Donegal","phone":"074 9113050","website":"www.dovida.ie","eircode":"F92 T68V","loc":"town"}},{"type":"Feature","geometry":{"type":"Point","coordinates":[-6.803378,53.874264]},"properties":{"name":"Better Living Homecare","addr":"Unit 1, Scurlockstown Business Park, Trim, Co Meath. C15 RD68","county":"Meath","phone":"046 9009242","website":"www.blhc.ie","eircode":"C15 RD68","loc":"town"}},{"type":"Feature","geometry":{"type":"Point","coordinates":[-9.07506,53.293634]},"properties":{"name":"MyHomecare.ie","addr":"Unit 19, 3rd Floor, Dockgate, Merchants Road, Co Galway. H91 AF8R","county":"Galway","phone":"1800 400900","website":"www.myhomecare.ie","eircode":"H91 AF8R","loc":"town"}},{"type":"Feature","geometry":{"type":"Point","coordinates":[-8.492989,54.253367]},"properties":{"name":"Woodbrook Care","addr":"Cregg Village, Rosses Point, Co Sligo. F91 AHR0","county":"Sligo","phone":"071 9202050","website":"www.woodbrookcare.ie","eircode":"F91 AHR0","loc":"town"}},{"type":"Feature","geometry":{"type":"Point","coordinates":[-7.807247,54.054601]},"properties":{"name":"Homeassist Healthcare","addr":"St Phelim\u2019s Nursing Home, Dromahair, Co Leitrim. F91 VY83","county":"Leitrim","phone":"071 9134032","website":"www.homeassist.ie","eircode":"F91 VY83","loc":"town"}},{"type":"Feature","geometry":{"type":"Point","coordinates":[-8.472642,51.898514]},"properties":{"name":"Senior Care Plus","addr":"Unit 134, The Cube Building, Monahan Road, Cork. T12 H1XY","county":"","phone":"089 9831375","website":"www.seniorcareplus.ie","eircode":"T12 H1XY","loc":"town"}},{"type":"Feature","geometry":{"type":"Point","coordinates":[-7.919348,53.829985]},"properties":{"name":"RHS Home Care","addr":"101 Golf Links Rd, Ballypheasan, Co Roscommon. F42 HY97","county":"Roscommon","phone":"0906 625988","website":"www.rhshomecare.ie","eircode":"F42 HY97","loc":"town"}},{"type":"Feature","geometry":{"type":"Point","coordinates":[-8.873374,53.343505]},"properties":{"name":"Care About You Baycare","addr":"Unit 13C, Briarhill Business Park, Ballybrit, Co Galway. H91 WY6P Mountain Road, Tubbercurry, Co Sligo. F91 AX97","county":"Galway","phone":"091 771775 087 1879473","website":"www.careaboutyou.ie","eircode":"H91 WY6P","loc":"county"}},{"type":"Feature","geometry":{"type":"Point","coordinates":[-8.473295,54.269221]},"properties":{"name":"Dovida","addr":"44/45 High Street, Sligo. F91 WC79","county":"","phone":"071 9317051","website":"www.dovida.ie","eircode":"F91 WC79","loc":"address"}},{"type":"Feature","geometry":{"type":"Point","coordinates":[-8.473712,54.270515]},"properties":{"name":"Irish Wheelchair Association","addr":"Abbeyville Centre, St Anne\u2019s, Sligo. F91 KH5X","county":"","phone":"071 9155522","website":"www.iwa.ie","eircode":"F91 KH5X","loc":"town"}},{"type":"Feature","geometry":{"type":"Point","coordinates":[-6.686544,53.291801]},"properties":{"name":"Comfort Home Care","addr":"Main Street, Clane, Co Kildare. W91 Y2TF","county":"Kildare","phone":"01 5252504","website":"www.comforthomecare.ie","eircode":"W91 Y2TF","loc":"address"}},{"type":"Feature","geometry":{"type":"Point","coordinates":[-7.952385,54.920754]},"properties":{"name":"Platinum Home Care","addr":"Larkin House, Old Town Letterkenny, Co Donegal. F92NT29","county":"Donegal","phone":"086 6868976 / 074 9757012","website":"www.platinumhomecare.ie","eircode":"F92NT29","loc":"town"}},{"type":"Feature","geometry":{"type":"Point","coordinates":[-8.473712,54.270515]},"properties":{"name":"Bluebird Care (Sligo & Mayo)","addr":"Suite 6, Quayside Shopping Centre, Quay Street, Sligo. F91 D540","county":"","phone":"1800 819310 / 071 9155008","website":"www.bluebirdcare.ie","eircode":"F91 D540","loc":"town"}},{"type":"Feature","geometry":{"type":"Point","coordinates":[-8.19068,53.631245]},"properties":{"name":"Right at Home","addr":"Golf Links Road, Ballypheasan, Roscommon. F42 YX65","county":"","phone":"090 6409084 / 087 1143410","website":"www.rightathome.ie/galway","eircode":"F42 YX65","loc":"town"}},{"type":"Feature","geometry":{"type":"Point","coordinates":[-9.298305,53.908706]},"properties":{"name":"Westcare Homecare","addr":"Digispace Claremorris, Unit 10, Lakeside Retail Park, Claremorris, Co Mayo. F12 X9N1","county":"Mayo","phone":"090 6643018","website":"www.westcarehomecare.ie","eircode":"F12 X9N1","loc":"town"}},{"type":"Feature","geometry":{"type":"Point","coordinates":[-9.04906,53.274412]},"properties":{"name":"Caremark (Consortium)","addr":"Unit 34, Glenrock Business Park, Bothar na Mina, Ballybane, Galway. H91 V2R7","county":"","phone":"091 771704","website":"www.caremark.ie","eircode":"H91 V2R7","loc":"town"}},{"type":"Feature","geometry":{"type":"Point","coordinates":[-9.07506,53.293634]},"properties":{"name":"Comfort Home Care","addr":"Unit 1D, Deerpark Business Centre, Oranmore, Co Galway. H91 X599","county":"Galway","phone":"089 6039957 / 091 342580","website":"www.comforthomecare.ie","eircode":"H91 X599","loc":"town"}},{"type":"Feature","geometry":{"type":"Point","coordinates":[-9.298305,53.908706]},"properties":{"name":"Dovida","addr":"Unit 4, McHale Retail Park, Castlebar, Co Mayo. F23 TD25","county":"Mayo","phone":"094 9044785","website":"www.dovida.ie","eircode":"F23 TD25","loc":"town"}},{"type":"Feature","geometry":{"type":"Point","coordinates":[-9.298305,53.908706]},"properties":{"name":"Atlantic Care","addr":"Unit 12A, N5 Business Park, Moneen, Castlebar, Co Mayo. F23 C603","county":"Mayo","phone":"094 9014028","website":"www.atlanticcare.ie","eircode":"F23 C603","loc":"town"}},{"type":"Feature","geometry":{"type":"Point","coordinates":[-8.848653,53.511043]},"properties":{"name":"Irish Wheelchair Association","addr":"The Glebe, Tuam, Co Galway. H54 TR77","county":"Galway","phone":"087 7741122","website":"www.iwa.ie","eircode":"H54 TR77","loc":"address"}},{"type":"Feature","geometry":{"type":"Point","coordinates":[-9.268928,53.850583]},"properties":{"name":"Rehab Group","addr":"Breaffy Road, Castlebar, Co Mayo. F23 AY11","county":"Mayo","phone":"087 9128982 / 094 9034834","website":"www.rehab.ie/rehabcare/our-","eircode":"F23 AY11","loc":"address"}},{"type":"Feature","geometry":{"type":"Point","coordinates":[-9.07506,53.293634]},"properties":{"name":"Platinum Home Care","addr":"Unit 5, Ballybrit, Racecourse Business Park, Co Galway. H91 CHK8","county":"Galway","phone":"083 3244862 / 091 342592","website":"www.platinumhomecare.ie","eircode":"H91 CHK8","loc":"town"}},{"type":"Feature","geometry":{"type":"Point","coordinates":[-9.000195,53.717325]},"properties":{"name":"RHS Home Care","addr":"1 James Street, Claremorris, Co Mayo. F12 DC31","county":"Mayo","phone":"0906 625988","website":"www.rhshomecare.ie","eircode":"F12 DC31","loc":"address"}},{"type":"Feature","geometry":{"type":"Point","coordinates":[-9.298305,53.908706]},"properties":{"name":"Connected Health","addr":"Suite 14, Cairn International Trade Centre, Swinford Road, Kiltimagh, Co Mayo. F12 P7W8","county":"Mayo","phone":"094 9041288","website":"www.connected-health.ie","eircode":"F12 P7W8","loc":"town"}},{"type":"Feature","geometry":{"type":"Point","coordinates":[-9.07506,53.293634]},"properties":{"name":"\u00c1 Ghr\u00e1 Care Services","addr":"The Mall, Tuam, Co Galway. H54 A375","county":"Galway","phone":"093 60716","website":"www.aghra.ie","eircode":"H54 A375","loc":"town"}},{"type":"Feature","geometry":{"type":"Point","coordinates":[-9.301402,53.245357]},"properties":{"name":"Casla Home Care","addr":"GTeic An Spid\u00e9al, An Spid\u00e9al, Co na Gaillimhe. H91 CH01","county":"","phone":"091 541910","website":"www.caslahomecare.ie","eircode":"H91 CH01","loc":"address"}},{"type":"Feature","geometry":{"type":"Point","coordinates":[-8.569726,53.197591]},"properties":{"name":"Family Carers Ireland","addr":"Barrack Street, Loughrea, Co Galway. H62 PY63","county":"Galway","phone":"091 885030","website":"www.familycarers.ie","eircode":"H62 PY63","loc":"address"}},{"type":"Feature","geometry":{"type":"Point","coordinates":[-8.873374,53.343505]},"properties":{"name":"Westcare Homecare","addr":"Office 7, Unit 28 Orchard House, Glenrock business Park, Ballybane, Galway Office Co Galway. 9A Stone Court, The Square, Roscommon. F42 KV80 Roscommon Office","county":"Galway","phone":"090 6643018 090 6643018","website":"www.westcarehomecare.ie","eircode":"F42 KV80","loc":"county"}},{"type":"Feature","geometry":{"type":"Point","coordinates":[-8.873374,53.343505]},"properties":{"name":"Dovida","addr":"12B Oranmore Business Park Oranmore Co Galway. H91 DT6C Galway Office Castle Street, Roscommon Town, Co Roscommon. F42 V276 Roscommon Office","county":"Galway","phone":"091 384160 071 9317051","website":"www.dovida.ie","eircode":"H91 DT6C","loc":"county"}},{"type":"Feature","geometry":{"type":"Point","coordinates":[-8.191145,53.631369]},"properties":{"name":"Right at Home","addr":"7 Mulvoy Park, Se\u00e1n Mulvoy Rd, Galway. H91 PDY0 Galway Office Golf Links Road, Ballypheasan, Roscommon. F42 YX65 Roscommon Office","county":"","phone":"091 376536 090 64 09084","website":"www.rightathome.ie/galway/","eircode":"H91 PDY0","loc":"town"}},{"type":"Feature","geometry":{"type":"Point","coordinates":[-7.919348,53.829985]},"properties":{"name":"Bluebird Care (Longford, Roscommon & Westmeath)","addr":"Block B, Monksland Business Park, Monksland, Athlone, Co Roscommon. N37 E4A8","county":"Roscommon","phone":"090 6491044","website":"www.bluebirdcarecareers.ie/longford-","eircode":"N37 E4A8","loc":"town"}},{"type":"Feature","geometry":{"type":"Point","coordinates":[-6.372328,53.352375]},"properties":{"name":"InisCare","addr":"Unit 3, Palmerstown Business Park, Old Lucan Road, Dublin 20. D20 R624","county":"","phone":"01 9125375","website":"www.iniscare.ie","eircode":"D20 R624","loc":"town"}},{"type":"Feature","geometry":{"type":"Point","coordinates":[-9.04906,53.274412]},"properties":{"name":"Irish Home Care","addr":"Dockgate, Unit 19, 3rd Floor, Merchants Road, Galway. H91 P6CF","county":"","phone":"091 740330","website":"www.irishhomecare.ie","eircode":"H91 P6CF","loc":"town"}},{"type":"Feature","geometry":{"type":"Point","coordinates":[-9.04906,53.274412]},"properties":{"name":"Bluebird Care (Galway)","addr":"Block 6, Galway Technology Park, Parkmore, Galway. H91 W30F","county":"","phone":"091 480048","website":"www.bluebirdcare.ie/galway","eircode":"H91 W30F","loc":"town"}},{"type":"Feature","geometry":{"type":"Point","coordinates":[-8.218251,53.69827]},"properties":{"name":"County Roscommon Disability Support Group","addr":"Derrane, Co Roscommon. F42 WK60 Roscommon Office Derrane, Co Roscommon. F42 WK60 Galway Office","county":"Roscommon","phone":"090 6625852 (Ext. 500) 090 6625852 (Ext. 503)","website":"www.rsg.ie","eircode":"F42 WK60","loc":"county"}},{"type":"Feature","geometry":{"type":"Point","coordinates":[-8.305286,51.832833]},"properties":{"name":"Comfort Home Care","addr":"17B Fota Retail Park, Carrigtwohill, Co Cork. T45 PK77","county":"Cork","phone":"089 6016219 / 021 2032004","website":"www.comforthomecare.ie","eircode":"T45 PK77","loc":"town"}},{"type":"Feature","geometry":{"type":"Point","coordinates":[-8.472642,51.898514]},"properties":{"name":"Care About You","addr":"KBT 2, Kilnap Business Technology Park, Cork. T23 FFN2","county":"","phone":"021 4854860","website":"www.careaboutyou.ie","eircode":"T23 FFN2","loc":"town"}},{"type":"Feature","geometry":{"type":"Point","coordinates":[-8.472642,51.898514]},"properties":{"name":"Irish Home Care","addr":"Anglo Irish Bank House, 11 Anglesea St, Ballintemple, Cork. T12 CYR8","county":"","phone":"021 2066404","website":"www.irishhomecare.ie","eircode":"T12 CYR8","loc":"town"}},{"type":"Feature","geometry":{"type":"Point","coordinates":[-6.183619,53.219412]},"properties":{"name":"InisCare","addr":"Unit 1, The Forge, Bakers Corner, Kill Of The Grange, Deansgrange, Co Wicklow. A96 EV72","county":"Wicklow","phone":"01 9125120","website":"www.iniscare.ie","eircode":"A96 EV72","loc":"town"}},{"type":"Feature","geometry":{"type":"Point","coordinates":[-8.472642,51.898514]},"properties":{"name":"Caremark (Consortium)","addr":"Unit 27, Tramore Commercial Park, Tramore Road, Cork. T12 K1HE","county":"","phone":"021 4514888","website":"www.caremark.ie","eircode":"T12 K1HE","loc":"town"}},{"type":"Feature","geometry":{"type":"Point","coordinates":[-8.472642,51.898514]},"properties":{"name":"Home & Away Care","addr":"Acorn Business Centre, Blackrock, Cork. T12 K7CV","county":"","phone":"023 8854710","website":"www.homeandawaycare.ie","eircode":"T12 K7CV","loc":"town"}},{"type":"Feature","geometry":{"type":"Point","coordinates":[-8.472642,51.898514]},"properties":{"name":"Right at Home","addr":"Mainline Place, Sarsfield Road, Wilton, Cork. T12 DY80","county":"","phone":"021 2347300","website":"www.rightathome.ie","eircode":"T12 DY80","loc":"town"}},{"type":"Feature","geometry":{"type":"Point","coordinates":[-6.2545,53.341125]},"properties":{"name":"Danu Home Care","addr":"Omega House, Collinstown Cross, Cloghran, Co Dublin. K67 E0A8","county":"Dublin","phone":"01 5727045","website":"www.danuhomecare.ie","eircode":"K67 E0A8","loc":"town"}},{"type":"Feature","geometry":{"type":"Point","coordinates":[-8.305286,51.832833]},"properties":{"name":"Bluebird Care (North Cork)","addr":"10.1 Market Square, Mallow, Co Cork. T12 KTF1","county":"Cork","phone":"022 42567","website":"www.bluebirdcare.ie","eircode":"T12 KTF1","loc":"town"}},{"type":"Feature","geometry":{"type":"Point","coordinates":[-8.472642,51.898514]},"properties":{"name":"Comfort Keepers","addr":"Unit 5, Melbourne Business Park, Model Farm Road, Cork. T12 W224","county":"","phone":"021 4341961","website":"www.comfortkeepers.ie","eircode":"T12 W224","loc":"town"}},{"type":"Feature","geometry":{"type":"Point","coordinates":[-8.640495,52.134871]},"properties":{"name":"Local Homecare Services","addr":"Unit 3/4, Bridewell Lane, Mallow, Co Cork. P51 EY90","county":"Cork","phone":"022 32410","website":"www.localhomecare.ie","eircode":"P51 EY90","loc":"address"}},{"type":"Feature","geometry":{"type":"Point","coordinates":[-8.960098,52.810206]},"properties":{"name":"Kare Plan","addr":"Unit 7, Suan, Quin, Co Clare. V95 EA46","county":"Clare","phone":"01 8511411","website":"www.kareplan.ie","eircode":"V95 EA46","loc":"town"}},{"type":"Feature","geometry":{"type":"Point","coordinates":[-8.532902,52.473942]},"properties":{"name":"CareBright","addr":"Ardykeohane, Bruff, Co Limerick. V35 NV32","county":"Limerick","phone":"061 602700","website":"www.carebright.ie","eircode":"V35 NV32","loc":"address"}},{"type":"Feature","geometry":{"type":"Point","coordinates":[-8.305286,51.832833]},"properties":{"name":"Bluebird Care (Cork) Bluebird Care (Tipperary & East Cork)","addr":"10.1 Market Square, Mallow, Co Cork. P51 KTF1 Enterprise Youghal, Emmet Place, Youghal, Co Cork. P36 N796","county":"Cork","phone":"022 42567 021 4224343","website":"www.bluebirdcare.ie","eircode":"P51 KTF1","loc":"town"}},{"type":"Feature","geometry":{"type":"Point","coordinates":[-6.690109,53.275665]},"properties":{"name":"Komfort Kare","addr":"3rd & 4th Floor, Market House, Market Square, Kilcullen, Co Kildare. R56 X021","county":"Kildare","phone":"045 493432","website":"www.komfortkare.ie","eircode":"R56 X021","loc":"town"}},{"type":"Feature","geometry":{"type":"Point","coordinates":[-8.477047,51.87315]},"properties":{"name":"Dovida","addr":"Kiermar House, Shanakiel Road, Sundays Well, Cork. T23 TDK7 Cork North Office 4 Nessan House, Riverview Business Park, Bessboro Road, Blackrock, Cork South Office Cork. T12 H63V","county":"","phone":"021 4307907 021 5002190","website":"www.dovida.ie","eircode":"T23 TDK7","loc":"town"}},{"type":"Feature","geometry":{"type":"Point","coordinates":[-8.472642,51.898514]},"properties":{"name":"Bluebird Care (Cork)","addr":"Unit 16, Watergold, Douglas, Cork. T12 V677","county":"","phone":"021 4279116","website":"www.bluebirdcare.ie","eircode":"T12 V677","loc":"town"}},{"type":"Feature","geometry":{"type":"Point","coordinates":[-9.77693,52.112763]},"properties":{"name":"Bluebird Care (Kerry, West Cork)","addr":"Unit 4, Liber House, Monavalley Business Park, Tralee, Co Kerry. V92 E9E2","county":"Kerry","phone":"066 7104015","website":"www.bluebirdcare.ie","eircode":"V92 E9E2","loc":"town"}},{"type":"Feature","geometry":{"type":"Point","coordinates":[-8.733724,51.745311]},"properties":{"name":"Home & Away Care","addr":"11/12 Oliver Plunkett Street, Bandon, Co Cork. P71 N272","county":"Cork","phone":"023 8854710","website":"www.homeandawaycare.ie","eircode":"P71 N272","loc":"address"}},{"type":"Feature","geometry":{"type":"Point","coordinates":[-9.77693,52.112763]},"properties":{"name":"Local Homecare Services Consortium Members","addr":"Unit 1, Innovation Works 1, Kerry Technology Park, Dromtacker, Tralee, Co Kerry. V92 R2XA","county":"Kerry","phone":"066 9130188","website":"www.localhomecare.ie","eircode":"V92 R2XA","loc":"town"}},{"type":"Feature","geometry":{"type":"Point","coordinates":[-8.630124,52.661252]},"properties":{"name":"Rehab Group","addr":"Parnell Place, Parnell Street, Limerick. V94 9X72","county":"","phone":"061 469028 / 087 9877250","website":"www.rehab.ie/rehabcare/our-","eircode":"V94 9X72","loc":"town"}},{"type":"Feature","geometry":{"type":"Point","coordinates":[-7.70612,52.35414]},"properties":{"name":"Bluebird Care (Tipperary & East Cork)","addr":"Unit 8, Crann Ard Business Centre, Fethard Road, Clonmel, Co Tipperary. E91 YC03","county":"Tipperary","phone":"052 6188080","website":"www.bluebirdcare.ie/tipperary","eircode":"E91 YC03","loc":"town"}},{"type":"Feature","geometry":{"type":"Point","coordinates":[-8.854548,52.488269]},"properties":{"name":"MyHomecare.ie","addr":"10/11 Steamboat Quay, Dock Road, Co Limerick. V94 V1KX","county":"Limerick","phone":"1800 400900","website":"www.myhomecare.ie","eircode":"V94 V1KX","loc":"town"}},{"type":"Feature","geometry":{"type":"Point","coordinates":[-8.937436,52.857258]},"properties":{"name":"CareBright (Consortium)","addr":"Harmony Row, Ennis, Co Clare. V95 F8CN Clare Office","county":"Clare","phone":"065 6894200","website":"www.carebright.ie","eircode":"V95 F8CN","loc":"county"}},{"type":"Feature","geometry":{"type":"Point","coordinates":[-7.898147,52.684821]},"properties":{"name":"Comfort Home Care","addr":"Limerick Office Main Street, Ballina, Co Tipperary. V94 YX2P Tipperary Office","county":"Tipperary","phone":"089 6036668 089 6054886","website":"www.comforthomecare.ie","eircode":"V94 YX2P","loc":"county"}},{"type":"Feature","geometry":{"type":"Point","coordinates":[-8.630124,52.661252]},"properties":{"name":"Comfort Keepers","addr":"Charlotte House, Charlotte\u2019s Quay, Limerick. V94 F8NP","county":"","phone":"061 317712","website":"www.comfortkeepers.ie","eircode":"V94 F8NP","loc":"town"}},{"type":"Feature","geometry":{"type":"Point","coordinates":[-6.389208,53.394935]},"properties":{"name":"Platinum Home Care","addr":"2 Lyncon Court, Snugborough Road, Blanchardstown, Dublin 15. D15 NP49","county":"","phone":"083 3221093 / 1800 636636","website":"www.platinumhomecare.ie","eircode":"D15 NP49","loc":"town"}},{"type":"Feature","geometry":{"type":"Point","coordinates":[-8.630124,52.661252]},"properties":{"name":"Family Carers Ireland","addr":"Georges Quay House, Georges Quay, Limerick. V94 CK06","county":"","phone":"061 310438 / 061 310803","website":"www.familycarers.ie","eircode":"V94 CK06","loc":"town"}},{"type":"Feature","geometry":{"type":"Point","coordinates":[-8.663941,52.649212]},"properties":{"name":"Private Home Care","addr":"Dock Road, Limerick.","county":"","phone":"01 2880000","website":"www.privatehomecare.ie","eircode":"","loc":"address"}},{"type":"Feature","geometry":{"type":"Point","coordinates":[-8.630124,52.661252]},"properties":{"name":"Communicare Healthcare","addr":"Global House, 1 Michael Street, Limerick. V94 VKT3","county":"","phone":"061 760231","website":"www.communicare.ie","eircode":"V94 VKT3","loc":"town"}},{"type":"Feature","geometry":{"type":"Point","coordinates":[-8.960098,52.810206]},"properties":{"name":"Care About You","addr":"Bay 100 \u2013 101, Shannon Free Zone, Shannon, Co Clare. V14 PH21","county":"Clare","phone":"061 479003 Approved Provider","website":"www.careaboutyou.ie","eircode":"V14 PH21","loc":"town"}},{"type":"Feature","geometry":{"type":"Point","coordinates":[-7.898147,52.684821]},"properties":{"name":"Dovida","addr":"Fairgreen, Ballysimon Road, Limerick. V94 VP2X Limerick Office 71 Liberty Square, Thurles, Co Tipperary. E41 DH63 Tipperary Office","county":"Tipperary","phone":"065 6797507 0504 91100","website":"www.dovida.ie","eircode":"V94 VP2X","loc":"county"}},{"type":"Feature","geometry":{"type":"Point","coordinates":[-8.630124,52.661252]},"properties":{"name":"Bluebird Care (Limerick)","addr":"Hibernian House, 105 Henry Street, Limerick. V94 X0XT","county":"","phone":"061 481208","website":"www.bluebirdcare.ie","eircode":"V94 X0XT","loc":"town"}},{"type":"Feature","geometry":{"type":"Point","coordinates":[-8.960098,52.810206]},"properties":{"name":"Family Carers Ireland","addr":"Block B, Suite 21, Clare Technology Park, Gort Road, Ennis, Co Clare. V95 E970","county":"Clare","phone":"065 6893690","website":"www.familycarers.ie","eircode":"V95 E970","loc":"town"}},{"type":"Feature","geometry":{"type":"Point","coordinates":[-8.960098,52.810206]},"properties":{"name":"Bluebird Care (Clare)","addr":"7 Market Place, Summerhill, Ennis, Co Clare. V95 NHE1","county":"Clare","phone":"065 6868222","website":"www.bluebirdcare.ie/clare","eircode":"V95 NHE1","loc":"town"}},{"type":"Feature","geometry":{"type":"Point","coordinates":[-8.937436,52.857258]},"properties":{"name":"Dovida","addr":"4A, Abbey Park, Quin Road Business Park, Ennis, Co Clare. V95 C659 Clare Office Fairgreen, Ballysimon Road, Limerick. V94 VP2X Limerick Office","county":"Clare","phone":"065 6797507 065 6797507","website":"www.dovida.ie","eircode":"V95 C659","loc":"county"}},{"type":"Feature","geometry":{"type":"Point","coordinates":[-6.2545,53.341125]},"properties":{"name":"Heritage Homecare","addr":"G8, The Pottery, Bakers Point, Pottery Road, Dun Laoghaire, Co Dublin. A96 TW27","county":"Dublin","phone":"01 2300020","website":"www.heritagehomecare.ie","eircode":"A96 TW27","loc":"town"}},{"type":"Feature","geometry":{"type":"Point","coordinates":[-6.296347,53.255729]},"properties":{"name":"Right at Home","addr":"Pineview Business Park, Unit 3A, Firhouse Road, Dublin 16. D16 XP89","county":"","phone":"01 9081919","website":"www.rightathome.ie","eircode":"D16 XP89","loc":"town"}},{"type":"Feature","geometry":{"type":"Point","coordinates":[-6.2545,53.341125]},"properties":{"name":"The Great Care Co-op","addr":"Castleyard Office Pods, 20/21 St Patrick's Road, Dalkey, Co Dublin. A96 DV76","county":"Dublin","phone":"01 2336194","website":"www.thegreatcarecoop.ie","eircode":"A96 DV76","loc":"town"}},{"type":"Feature","geometry":{"type":"Point","coordinates":[-6.183345,53.240942]},"properties":{"name":"All About Healthcare (Consortium)","addr":"Unit 9, Histon House, Cornelscourt, Dublin 18. D18 Y951","county":"","phone":"01 9022922","website":"www.careteam.ie","eircode":"D18 Y951","loc":"town"}},{"type":"Feature","geometry":{"type":"Point","coordinates":[-6.690109,53.275665]},"properties":{"name":"Homecare Solutions","addr":"Unit 4, Rathasker Square, Kilcullen Road, Naas, Co Kildare. W91 DE61","county":"Kildare","phone":"045 579061","website":"www.homecaresolutions.ie","eircode":"W91 DE61","loc":"town"}},{"type":"Feature","geometry":{"type":"Point","coordinates":[-6.246855,53.297739]},"properties":{"name":"Bluebird Care (Dublin South)","addr":"Frankfort Hall, Dundrum Road, Dundrum, Dublin 14. D14 RX27","county":"","phone":"01 2061974","website":"www.bluebirdcare.ie","eircode":"D14 RX27","loc":"address"}},{"type":"Feature","geometry":{"type":"Point","coordinates":[-6.183345,53.240942]},"properties":{"name":"Hibernia Home Care","addr":"Shankill Business Centre, Station Road, Shankill, Dublin 18. D18 N1N2","county":"","phone":"01 9081983","website":"www.hiberniahomecare.ie","eircode":"D18 N1N2","loc":"town"}},{"type":"Feature","geometry":{"type":"Point","coordinates":[-6.348759,52.244358]},"properties":{"name":"Senior Care Plus","addr":"Unit 2.1, EETC, Mile House Road, Enniscorthy, Co Wexford. Y21 D8W6","county":"Wexford","phone":"089 9831375","website":"www.seniorcareplus.ie","eircode":"Y21 D8W6","loc":"town"}},{"type":"Feature","geometry":{"type":"Point","coordinates":[-6.2545,53.341125]},"properties":{"name":"Be Independent Home Care","addr":"2nd Floor, The Highline, Bakers Point, Pottery Road, Dun Laoghaire, Co Dublin. A96 KW29","county":"Dublin","phone":"01 8283030","website":"www.beindependenthomecare.ie","eircode":"A96 KW29","loc":"town"}},{"type":"Feature","geometry":{"type":"Point","coordinates":[-6.381421,52.95821]},"properties":{"name":"Comfort Keepers","addr":"Dublin South Office Dublin 14. D14 H9W4 Quinsborough Road, Bray, Co Wicklow. A98 R6D7 Wicklow Office","county":"Wicklow","phone":"01 2969114","website":"www.comfortkeepers.ie","eircode":"D14 H9W4","loc":"county"}},{"type":"Feature","geometry":{"type":"Point","coordinates":[-6.2545,53.341125]},"properties":{"name":"All In Care","addr":"Unit 5F, Fingal Bay Business Park, Balbriggan, Co Dublin.","county":"Dublin","phone":"01 6901300","website":"www.allincare.ie","eircode":"","loc":"town"}},{"type":"Feature","geometry":{"type":"Point","coordinates":[-6.381421,52.95821]},"properties":{"name":"ADW (Consortium)","addr":"21A Upper Vevay Road, Bray, Co Wicklow. A98 CH56 Bray Office","county":"Wicklow","phone":"01 2867509","website":"www.brayhomecareservice.ie","eircode":"A98 CH56","loc":"county"}},{"type":"Feature","geometry":{"type":"Point","coordinates":[-6.381421,52.95821]},"properties":{"name":"ADW (Consortium)","addr":"Shoreline Sport\u2019s Park, Charlesland, Greystones, Co Wicklow. A63 Greystones Office CA18","county":"Wicklow","phone":"01 2016424","website":"www.greystoneshomehelp.ie","eircode":"","loc":"county"}},{"type":"Feature","geometry":{"type":"Point","coordinates":[-6.187243,53.280145]},"properties":{"name":"Manor Homecare","addr":"Belmont House, Stillorgan Road, Blackrock, Co Dublin. A94 Y4T8","county":"Dublin","phone":"01 2210520","website":"www.manorhomecare.ie","eircode":"A94 Y4T8","loc":"address"}},{"type":"Feature","geometry":{"type":"Point","coordinates":[-6.183619,53.219412]},"properties":{"name":"Woodbrook Care","addr":"Suite 4, The Boulevard Centre, Quinsborough Road, Bray, Co Wicklow. A98 R6D7","county":"Wicklow","phone":"01 4370940","website":"www.woodbrookcare.ie","eircode":"A98 R6D7","loc":"town"}},{"type":"Feature","geometry":{"type":"Point","coordinates":[-6.183619,53.219412]},"properties":{"name":"Caremark Wicklow East","addr":"Unit C26, Arklow Business Enterprise Centre, Kilbride Industrial Estate, Arklow, Co Wicklow. Y14 WY28","county":"Wicklow","phone":"01 276 8793","website":"www.caremark.ie","eircode":"Y14 WY28","loc":"town"}},{"type":"Feature","geometry":{"type":"Point","coordinates":[-6.42435,53.247989]},"properties":{"name":"Connected Health","addr":"First Floor, Block 3, Lidl Neighbourhood Centre, Belgard Road, Tallaght, Dublin 24. D24 N52K","county":"","phone":"01 2605002","website":"www.connected-health.ie","eircode":"D24 N52K","loc":"town"}},{"type":"Feature","geometry":{"type":"Point","coordinates":[-6.286668,53.406515]},"properties":{"name":"Bluebird Care","addr":"Dun Laoghaire 67 Patrick Street, Dun Laoghaire, Co Dublin. A96 V652 Office Suite 16, Broomhall Business Park, Rathnew, Co Wicklow. A67 EF43 Rathnew Office","county":"Dublin","phone":"01 2144066 0404 31177","website":"www.bluebirdcare.ie","eircode":"A96 V652","loc":"county"}},{"type":"Feature","geometry":{"type":"Point","coordinates":[-6.301336,53.336692]},"properties":{"name":"Platinum Home Care","addr":"Calmount Park, The Link Business Centre G1, Ballymount, Dublin 12. D12 TH56","county":"","phone":"01 9636080 / 083 3151743","website":"www.platinumhomecare.ie","eircode":"D12 TH56","loc":"town"}},{"type":"Feature","geometry":{"type":"Point","coordinates":[-6.320311,53.350342]},"properties":{"name":"HomeCarer Trusted Independent Living","addr":"Lower Ground Floor Office, 1 Harrington Street, Portobello, Dublin 8. D08 Y7EP","county":"","phone":"01 4064285","website":"www.homecarer.ie","eircode":"D08 Y7EP","loc":"town"}},{"type":"Feature","geometry":{"type":"Point","coordinates":[-6.258201,53.298647]},"properties":{"name":"Caremark (Consortium)","addr":"VFI Court, Castleside Drive, Rathfarnham, Dublin 14. D14 N8N8","county":"","phone":"01 2951747","website":"www.caremark.ie","eircode":"D14 N8N8","loc":"town"}},{"type":"Feature","geometry":{"type":"Point","coordinates":[-6.176093,53.199927]},"properties":{"name":"Dovida","addr":"Unit E, Glencormack Business Park, Kilmacanogue, Co Wicklow. A98 Wicklow Office A6F9 Unit B07/08/09 Nutgrove Enterprise Park, Nutgrove Way, Dublin South Office Rathfarnham, Dublin 14. D14 EN24","county":"Wicklow","phone":"01 2768122 01 4241945","website":"www.dovida.ie","eircode":"D14 EN24","loc":"town"}},{"type":"Feature","geometry":{"type":"Point","coordinates":[-6.2545,53.341125]},"properties":{"name":"Danu Home Care","addr":"Dublin South City 3 Pembrook Place, Ballsbridge, Dublin 4. D04 K448 Office Omega House, Collinstown Cross, Cloghran, Co Dublin. K67 E0A8","county":"Dublin","phone":"01 6670911 01 5727045","website":"www.danuhomecare.ie","eircode":"D04 K448","loc":"town"}},{"type":"Feature","geometry":{"type":"Point","coordinates":[-6.42435,53.247989]},"properties":{"name":"Family Carers Ireland","addr":"Unit 8, 4075 Kingswood Road, Citywest Business Campus, Dublin 24. D24 F212","county":"","phone":"01 6705998","website":"www.familycarers.ie","eircode":"D24 F212","loc":"town"}},{"type":"Feature","geometry":{"type":"Point","coordinates":[-6.301336,53.336692]},"properties":{"name":"Care At Home","addr":"3A Bridgecourt Office Park, Walkinstown Avenue, Dublin 12. D12 A447","county":"","phone":"01 4851616","website":"www.careathome.ie","eircode":"D12 A447","loc":"town"}},{"type":"Feature","geometry":{"type":"Point","coordinates":[-6.219007,53.33137]},"properties":{"name":"Applewood Homecare","addr":"11A Claremont Road, Sandymount, Dublin 4. D04 V3W7","county":"","phone":"01 4992201","website":"www.applewoodhomecare.ie","eircode":"D04 V3W7","loc":"address"}},{"type":"Feature","geometry":{"type":"Point","coordinates":[-6.227487,53.327507]},"properties":{"name":"MyHomecare.ie","addr":"One Haddington Buildings, Haddington Road, Dublin 4. D04 X4C9","county":"","phone":"1800 400900","website":"www.myhomecare.ie","eircode":"D04 X4C9","loc":"town"}},{"type":"Feature","geometry":{"type":"Point","coordinates":[-6.183345,53.240942]},"properties":{"name":"Kare Plan","addr":"Stonebridge House, Stonebridge Close, Shankill, Dublin 18. D18 T6H0","county":"","phone":"01 8511411","website":"www.kareplan.ie","eircode":"D18 T6H0","loc":"town"}},{"type":"Feature","geometry":{"type":"Point","coordinates":[-6.381421,52.95821]},"properties":{"name":"Irish Wheelchair Association","addr":"ABEC Centre, Kilbride Industrial Estate, Kilbride, Arklow, Co Wicklow. Y14 T44","county":"Wicklow","phone":"087 1488400","website":"www.iwa.ie","eircode":"","loc":"county"}},{"type":"Feature","geometry":{"type":"Point","coordinates":[-6.450809,53.349168]},"properties":{"name":"Private Home Care","addr":"2 Newcastle Road, Lucan, Co Dublin. K78 NY56","county":"Dublin","phone":"01 6219101","website":"www.privatehomecare.ie","eircode":"K78 NY56","loc":"address"}},{"type":"Feature","geometry":{"type":"Point","coordinates":[-6.301336,53.336692]},"properties":{"name":"Care About You","addr":"Unit 4, Park West Enterprise Centre, Park West, Dublin 12. D12 XH76","county":"","phone":"086 1988954","website":"www.careaboutyou.ie","eircode":"D12 XH76","loc":"town"}},{"type":"Feature","geometry":{"type":"Point","coordinates":[-6.2545,53.341125]},"properties":{"name":"Emerald Homecare","addr":"The Courtyard, 40 Main Street, Blackrock, Co Dublin. A94 Y1R7","county":"Dublin","phone":"01 2539324","website":"www.emeraldhomecare.ie","eircode":"A94 Y1R7","loc":"town"}},{"type":"Feature","geometry":{"type":"Point","coordinates":[-7.147189,52.249313]},"properties":{"name":"Irish Home Care","addr":"Unit 8, Kilmeaden Village Centre, Kilmeaden, Co Waterford. X91 Y189","county":"Waterford","phone":"051 511271","website":"www.irishhomecare.ie","eircode":"X91 Y189","loc":"town"}},{"type":"Feature","geometry":{"type":"Point","coordinates":[-6.690109,53.275665]},"properties":{"name":"Private Home Care","addr":"Units F&G, Wolfe Tone St, Naas, Co Kildare. W91 A2YV","county":"Kildare","phone":"01 2880000","website":"www.privatehomecare.ie","eircode":"W91 A2YV","loc":"town"}},{"type":"Feature","geometry":{"type":"Point","coordinates":[-6.460134,52.337344]},"properties":{"name":"Family Carers Ireland","addr":"24 Henrietta Street, Co Wexford. Y35 WC59","county":"Wexford","phone":"053 9140513","website":"www.familycarers.ie","eircode":"Y35 WC59","loc":"address"}},{"type":"Feature","geometry":{"type":"Point","coordinates":[-6.348759,52.244358]},"properties":{"name":"Comfort Keepers","addr":"M11 Business Campus, Wexford Road, Gorey, Co Wexford. Y25 A8H2","county":"Wexford","phone":"053 9489260","website":"www.comfortkeepers.ie","eircode":"Y25 A8H2","loc":"town"}},{"type":"Feature","geometry":{"type":"Point","coordinates":[-7.657798,52.150913]},"properties":{"name":"Dovida","addr":"Unit 3, Cleaboy Business Park, Old Kilmeaden Road, Co Waterford. X91 Waterford Office H5FE Office R9, Clonard Village Centre, Clonard Village, Wexford. Y35 XC57 Wexford Office","county":"Waterford","phone":"051 333966 053 9184042","website":"www.dovida.ie","eircode":"Y35 XC57","loc":"county"}},{"type":"Feature","geometry":{"type":"Point","coordinates":[-6.348759,52.244358]},"properties":{"name":"Woodbrook Care","addr":"EETC, Milehouse Road, Bellefield, Enniscorthy, Co Wexford.","county":"Wexford","phone":"01 5461066","website":"www.woodbrookcare.ie","eircode":"","loc":"town"}},{"type":"Feature","geometry":{"type":"Point","coordinates":[-6.348759,52.244358]},"properties":{"name":"Kare Plan","addr":"2nd Floor, Unit B4 Clonard Village, Wexford Town, Co Wexford. Y35 K163","county":"Wexford","phone":"01 8511411","website":"www.kareplan.ie","eircode":"Y35 K163","loc":"town"}},{"type":"Feature","geometry":{"type":"Point","coordinates":[-6.348759,52.244358]},"properties":{"name":"Bluebird Care (Wexford)","addr":"32 Keywest, Custom House Quay, Wexford, Co Wexford. Y35 Y192","county":"Wexford","phone":"053 9153933","website":"www.bluebirdcare.ie","eircode":"Y35 Y192","loc":"town"}},{"type":"Feature","geometry":{"type":"Point","coordinates":[-7.111908,52.261]},"properties":{"name":"Clannad Care","addr":"Unit 3A, Cleaboy Business Park, Old Kilmeaden Road, Waterford. X91 H5FE","county":"","phone":"051 878947","website":"www.clannadcare.ie","eircode":"X91 H5FE","loc":"town"}},{"type":"Feature","geometry":{"type":"Point","coordinates":[-6.46014,52.336767]},"properties":{"name":"Caremark (South East)","addr":"Unit 1, Wexford Enterprise Centre, Strandfield Business Park, Rosslare Road, Wexford. Y35 HE04","county":"","phone":"053 9100027","website":"www.caremark.ie","eircode":"Y35 HE04","loc":"town"}},{"type":"Feature","geometry":{"type":"Point","coordinates":[-6.606516,52.460188]},"properties":{"name":"Comfort Home Care","addr":"Slaney Place, Enniscorthy, Co Wexford. Y21 F6KO","county":"Wexford","phone":"053 9015001","website":"www.comforthomecare.ie","eircode":"","loc":"county"}},{"type":"Feature","geometry":{"type":"Point","coordinates":[-7.111908,52.261]},"properties":{"name":"Rehab Group","addr":"Anchor Resource Centre, Waterford & Wexford Carelink, Unit 2, Tramore Road Business Park, Waterford. X91 XH27","county":"","phone":"087 2960336","website":"www.rehab.ie","eircode":"X91 XH27","loc":"town"}},{"type":"Feature","geometry":{"type":"Point","coordinates":[-7.053597,52.266545]},"properties":{"name":"Irish Wheelchair Association","addr":"Unit 4, IDA Business Park, Purcellsinch, Kilkenny, Co Kilkenny. R95 PX5X","county":"Kilkenny","phone":"087 1488400","website":"www.iwa.ie","eircode":"R95 PX5X","loc":"town"}},{"type":"Feature","geometry":{"type":"Point","coordinates":[-6.245577,53.38605]},"properties":{"name":"Tarasis Healthcare","addr":"Unit D2, Block D, Santry Business Park, Swords Road, Dublin 9. D09 T3V5","county":"","phone":"042 9324688","website":"www.tarasis.com","eircode":"D09 T3V5","loc":"town"}},{"type":"Feature","geometry":{"type":"Point","coordinates":[-6.348759,52.244358]},"properties":{"name":"Platinum Home Care","addr":"Senan House, Enniscorthy, Co Wexford. Y21 A9K8.","county":"Wexford","phone":"083 4379632 / 053 9015030","website":"www.platinumhomecare.ie","eircode":"Y21 A9K8","loc":"town"}},{"type":"Feature","geometry":{"type":"Point","coordinates":[-7.111908,52.261]},"properties":{"name":"Bluebird Care (Carlow, Kilkenny & Waterford)","addr":"Unit F2, City Enterprise Centre, Waterford Business Park, Waterford. X91 KC43","county":"","phone":"051 591783","website":"www.bluebirdcare.ie","eircode":"X91 KC43","loc":"town"}},{"type":"Feature","geometry":{"type":"Point","coordinates":[-7.266823,52.640819]},"properties":{"name":"Bluebird Care (Carlow, Kilkenny & Waterford)","addr":"Callan Road, Kilkenny, Co Kilkenny. R95 CV99","county":"Kilkenny","phone":"056 7789952","website":"www.bluebirdcare.ie","eircode":"R95 CV99","loc":"address"}},{"type":"Feature","geometry":{"type":"Point","coordinates":[-7.188983,52.56871]},"properties":{"name":"Family Carers Ireland","addr":"Butler Court, 14 Patrick Street, Kilkenny, Co Kilkenny. R95 FT9X Kilkenny Office 25 Gladstone Street, Clonmel, Co Tipperary E91 HK51 Tipperary Office","county":"Kilkenny","phone":"056 7753531 052 6170456","website":"www.familycarers.ie","eircode":"R95 FT9X","loc":"county"}},{"type":"Feature","geometry":{"type":"Point","coordinates":[-7.898147,52.684821]},"properties":{"name":"Dovida","addr":"Unit 7, Cillin Hill Centre, Dublin Road, Kilkenny. R95 FCH2 Kilkenny Office 71 Liberty Square, Thurles, Co Tipperary. E41 DH63 Tipperary Office","county":"Tipperary","phone":"056 7800508 0504 91100","website":"www.dovida.ie","eircode":"R95 FCH2","loc":"county"}},{"type":"Feature","geometry":{"type":"Point","coordinates":[-6.719546,53.97744]},"properties":{"name":"Comfort Home Care","addr":"22 Main Street, Carrickmacross, Co Monaghan. A81 NP78","county":"Monaghan","phone":"089 6050542 / 047 45100","website":"www.comforthomecare.ie","eircode":"A81 NP78","loc":"address"}},{"type":"Feature","geometry":{"type":"Point","coordinates":[-6.350256,53.716784]},"properties":{"name":"Right at Home","addr":"56 West St, Moneymore, Drogheda, Co Louth. A92 E4CY","county":"Louth","phone":"041 2136033","website":"www.rightathome.ie","eircode":"A92 E4CY","loc":"town"}},{"type":"Feature","geometry":{"type":"Point","coordinates":[-6.350256,53.716784]},"properties":{"name":"Bluebird Care (Northeast)","addr":"Suite 7/8, The Business Centre, Blackthorn Business Park, Coe\u2019s Rd, Dundalk, Co Louth. A91 F309","county":"Louth","phone":"042 9370990","website":"www.bluebirdcare.ie","eircode":"A91 F309","loc":"town"}},{"type":"Feature","geometry":{"type":"Point","coordinates":[-7.323533,53.989188]},"properties":{"name":"Family Carers Ireland","addr":"1 CYMS building, Farnham Street, Keadue, Co Cavan. H12 D1W7","county":"Cavan","phone":"049 8511030","website":"www.familycarers.ie","eircode":"H12 D1W7","loc":"town"}},{"type":"Feature","geometry":{"type":"Point","coordinates":[-6.2545,53.341125]},"properties":{"name":"Private Home Care","addr":"5 St. Fintan's, North Street, Swords, Co Dublin. K67 PY20","county":"Dublin","phone":"01 2880000","website":"www.privatehomecare.ie","eircode":"K67 PY20","loc":"town"}},{"type":"Feature","geometry":{"type":"Point","coordinates":[-6.766579,53.934844]},"properties":{"name":"Dovida","addr":"Unit 6, CTEK Building, Riverside Road, Carrickmacross, Co Monaghan. A81 DH73","county":"Monaghan","phone":"042 9420720","website":"www.dovida.ie","eircode":"A81 DH73","loc":"town"}},{"type":"Feature","geometry":{"type":"Point","coordinates":[-6.350256,53.716784]},"properties":{"name":"MyHomecare.ie","addr":"Quayside Business Park, Mill Street, Dundalk, Co Louth. A91 WNH1","county":"Louth","phone":"1800 400900","website":"www.myhomecare.ie","eircode":"A91 WNH1","loc":"town"}},{"type":"Feature","geometry":{"type":"Point","coordinates":[-6.968885,54.248558]},"properties":{"name":"Comfort Keepers","addr":"2 Mill Street, Roosky, Monaghan. H18 YX48","county":"","phone":"047 33107","website":"www.comfortkeepers.ie","eircode":"H18 YX48","loc":"town"}},{"type":"Feature","geometry":{"type":"Point","coordinates":[-6.766579,53.934844]},"properties":{"name":"Irish Home Care","addr":"Unit 1, Drumillard Retail Park, Monaghan Road, Castleblayney, Co Monaghan. A75 E288","county":"Monaghan","phone":"042 9754751","website":"www.irishhomecare.ie","eircode":"A75 E288","loc":"town"}},{"type":"Feature","geometry":{"type":"Point","coordinates":[-6.803378,53.874264]},"properties":{"name":"Irish Wheelchair Association","addr":"Kells Business & Enterprise Centre, Kells Business Park, Kells, Co Meath. A82 E1C6.","county":"Meath","phone":"085 2542542","website":"www.iwa.ie","eircode":"A82 E1C6","loc":"town"}},{"type":"Feature","geometry":{"type":"Point","coordinates":[-6.971321,54.248221]},"properties":{"name":"Westcare Homecare","addr":"Phase 1 Unit G, Cavan Enterprise Centre, Cavan. H12 W309 Cavan Office Unit 2, Castlemeadows Court, Tirkeenan, Monaghan. H18 D682 Monaghan Office","county":"","phone":"049 4890060 047 63011","website":"www.westcarehomecare.ie","eircode":"H12 W309","loc":"town"}},{"type":"Feature","geometry":{"type":"Point","coordinates":[-7.080987,53.834261]},"properties":{"name":"Connected Health","addr":"Unit 1, Main Street, Virginia, Co Cavan. A82 C5K2","county":"Cavan","phone":"041 9710644","website":"www.connected-health.ie","eircode":"A82 C5K2","loc":"address"}},{"type":"Feature","geometry":{"type":"Point","coordinates":[-6.260559,53.349379]},"properties":{"name":"Pioneer Homecare","addr":"Airvista House, Swords Road, Santry, Dublin. D09 P863","county":"","phone":"01 4996100","website":"www.pioneerhomecare.ie","eircode":"D09 P863","loc":"town"}},{"type":"Feature","geometry":{"type":"Point","coordinates":[-6.2545,53.341125]},"properties":{"name":"Bluebird Care (Dublin North)","addr":"81 Applewood Village Main Street, Swords, Co Dublin. K67 R590","county":"Dublin","phone":"01 8408222","website":"www.bluebirdcare.ie","eircode":"K67 R590","loc":"town"}},{"type":"Feature","geometry":{"type":"Point","coordinates":[-6.286668,53.406515]},"properties":{"name":"Dovida (Consortium)","addr":"7 Marino Mart, Fairview, Dublin 3. D03 X5C3 Office 2nd Floor, Broadmeadow Hall, Applewood Village, Swords, Co Dublin. K67 Dublin North Office Y5F2","county":"Dublin","phone":"01 8535048 01 8950010","website":"www.dovida.ie","eircode":"D03 X5C3","loc":"county"}},{"type":"Feature","geometry":{"type":"Point","coordinates":[-6.254428,53.343706]},"properties":{"name":"Future Care Home Care Specialist","addr":"Block 3C, Millbank Business Park, Lucan, Co Dublin. K78 F6K8 Dublin West Office 5 Fitzwilliam Square East, Dublin. D02 R744","county":"Dublin","phone":"01 4127812 01 9637070","website":"www.futurecare.ie","eircode":"K78 F6K8","loc":"town"}},{"type":"Feature","geometry":{"type":"Point","coordinates":[-6.205182,53.36311]},"properties":{"name":"Drumcondra Home Help & Care Services CLG","addr":"76 Teeling Way, Eastwall, Dublin 3. D03 TK83","county":"","phone":"01 8083889 / 01 5481826","website":"www.dhhcs.ie","eircode":"D03 TK83","loc":"town"}},{"type":"Feature","geometry":{"type":"Point","coordinates":[-6.181925,53.383454]},"properties":{"name":"Manor Homecare","addr":"The Residence Carton, Tonlegee Road, Raheny, Dublin 5.","county":"","phone":"01 9681900","website":"www.manorhomecare.ie","eircode":"","loc":"town"}},{"type":"Feature","geometry":{"type":"Point","coordinates":[-6.292627,53.386614]},"properties":{"name":"Caremark (Consortium)","addr":"Caremark House, 13 Blackwater Road, Glasnevin, Dublin 11. D11 V500","county":"","phone":"01 9030132","website":"www.caremark.ie","eircode":"D11 V500","loc":"town"}},{"type":"Feature","geometry":{"type":"Point","coordinates":[-6.292627,53.386614]},"properties":{"name":"Irish Home Care","addr":"Unit 13, Rosemount Park Drive, Keypoint Business Park, Rosemount Business Park, Dublin 11. D11 E0XK","county":"","phone":"01 9631530","website":"www.irishhomecare.ie","eircode":"D11 E0XK","loc":"town"}},{"type":"Feature","geometry":{"type":"Point","coordinates":[-6.389208,53.394935]},"properties":{"name":"Hibernia Home Care","addr":"Unit 15, Block 8, Blanchardstown Corporate Park, Dublin 15. D15 PY62","county":"","phone":"01 5240242","website":"www.hiberniahomecare.ie","eircode":"D15 PY62","loc":"town"}},{"type":"Feature","geometry":{"type":"Point","coordinates":[-6.209491,53.400361]},"properties":{"name":"Comfort Keepers","addr":"Unit 1 and 2, Woodford Court, Woodford Business Park, Dublin 17. D17 KW59","county":"","phone":"01 8797777","website":"www.comfortkeepers.ie","eircode":"D17 KW59","loc":"town"}},{"type":"Feature","geometry":{"type":"Point","coordinates":[-6.181925,53.383454]},"properties":{"name":"Kare Plan","addr":"Unit 10/11, Block A, Howth Junction Business Centre, Kilbarrack Way, Dublin 5. D05 X792","county":"","phone":"01 8511411","website":"www.kareplan.ie","eircode":"D05 X792","loc":"town"}},{"type":"Feature","geometry":{"type":"Point","coordinates":[-6.260559,53.349379]},"properties":{"name":"Right at Home","addr":"Patricia Lodge, Main Street, Blanchardstown, Dublin. D15 F436","county":"","phone":"01 4954030","website":"www.rightathome.ie","eircode":"D15 F436","loc":"town"}},{"type":"Feature","geometry":{"type":"Point","coordinates":[-6.389208,53.394935]},"properties":{"name":"Bluebird Care (Dublin West)","addr":"Unit 7, Block 8, Blanchardstown Corporate Park, Ballycoolin, Dublin 15. D15 TD6C","county":"","phone":"01 8208250","website":"www.bluebirdcare.ie","eircode":"D15 TD6C","loc":"town"}},{"type":"Feature","geometry":{"type":"Point","coordinates":[-6.209491,53.400361]},"properties":{"name":"Be Independent Home Care","addr":"Chase House, City Junction Business Park, Northern Cross, Malahide Road, Dublin 17. D17 AK63","county":"","phone":"01 8283030","website":"www.beindependenthomecare.ie","eircode":"D17 AK63","loc":"town"}},{"type":"Feature","geometry":{"type":"Point","coordinates":[-6.207026,53.36051]},"properties":{"name":"Dublin Home Care Partners (Consortium)","addr":"96 Clontarf Road, Dublin 3. D03 DT89","county":"","phone":"01 5549060","website":"www.dublinhomecare.ie","eircode":"D03 DT89","loc":"address"}},{"type":"Feature","geometry":{"type":"Point","coordinates":[-6.216875,53.362178]},"properties":{"name":"Emerald Homecare","addr":"57 Clontarf Road, Dublin 3. D03 A7P0","county":"","phone":"01 6837714","website":"www.emeraldhomecare.ie","eircode":"D03 A7P0","loc":"address"}},{"type":"Feature","geometry":{"type":"Point","coordinates":[-6.250388,53.335131]},"properties":{"name":"Future Care Home Care Specialist","addr":"5 Fitzwilliam Square East, Dublin 2. D02 R744","county":"","phone":"01 9637070","website":"www.futurecare.ie","eircode":"D02 R744","loc":"address"}},{"type":"Feature","geometry":{"type":"Point","coordinates":[-6.254428,53.343706]},"properties":{"name":"InisCare","addr":"70 Applewood Main Street, Swords, Do Dublin. K67 K5D2","county":"","phone":"01 9026950","website":"www.iniscare.ie","eircode":"K67 K5D2","loc":"town"}},{"type":"Feature","geometry":{"type":"Point","coordinates":[-6.286668,53.406515]},"properties":{"name":"Dovida (Consortium)","addr":"Office 2nd Floor, Broadmeadow Hall, Applewood Village, Swords, Co. Dublin. Dublin North Office K67 Y5F2","county":"Dublin","phone":"01 8950010","website":"www.dovida.ie","eircode":"K67 Y5F2","loc":"county"}},{"type":"Feature","geometry":{"type":"Point","coordinates":[-6.803378,53.874264]},"properties":{"name":"Platinum Home Care","addr":"Unit 6 Clonard House, Townparks, Navan, Co Meath. C15 VP73","county":"Meath","phone":"046 9085004 / 083 4734994","website":"www.platinumhomecare.ie","eircode":"C15 VP73","loc":"town"}},{"type":"Feature","geometry":{"type":"Point","coordinates":[-6.803378,53.874264]},"properties":{"name":"Bluebird Care (Meath)","addr":"Unit 8 Meath Enterprise Centre, Trim Road, Navan, Co Meath. C15 F674","county":"Meath","phone":"046 9090333","website":"www.bluebirdcare.ie","eircode":"C15 F674","loc":"town"}},{"type":"Feature","geometry":{"type":"Point","coordinates":[-6.53205,53.906285]},"properties":{"name":"Dovida","addr":"Unit 1, Tenure Industrial Complex, Tenure, Dunleer, Co Louth. A92 Louth Office K2VF Bridge Street, Trim, Co Meath. C15 ED74 Meath Office","county":"Louth","phone":"041 2132322 046 9483338","website":"www.dovida.ie","eircode":"C15 ED74","loc":"county"}},{"type":"Feature","geometry":{"type":"Point","coordinates":[-6.968885,54.248558]},"properties":{"name":"Westcare Homecare","addr":"Unit 2, Castlemeadows Court, Tirkeenan, Monaghan. H18 D682","county":"","phone":"047 63011","website":"www.westcarehomecare.ie","eircode":"H18 D682","loc":"town"}},{"type":"Feature","geometry":{"type":"Point","coordinates":[-7.347856,53.55779]},"properties":{"name":"Family Carers Ireland","addr":"First Floor, Harbour House, Mullingar, Co Westmeath. N91 DE72","county":"Westmeath","phone":"044 9347053","website":"www.familycarers.ie","eircode":"N91 DE72","loc":"town"}},{"type":"Feature","geometry":{"type":"Point","coordinates":[-6.53205,53.906285]},"properties":{"name":"Comfort Keepers","addr":"John Street Business Park, John Street, Ardee, Co Louth. A92 A5FR Louth Office 7 Trimgate Street, Navan, Co Meath. C15 KT78 Meath Office","county":"Louth","phone":"041 6871002","website":"www.comfortkeepers.ie","eircode":"A92 A5FR","loc":"county"}},{"type":"Feature","geometry":{"type":"Point","coordinates":[-7.347856,53.55779]},"properties":{"name":"Care About You","addr":"Suite 16B, Inish Carraig Business Centre, Golden Island, Athlone, Co Westmeath. N37 ND26","county":"Westmeath","phone":"090 6479804","website":"www.careaboutyou.ie","eircode":"N37 ND26","loc":"town"}},{"type":"Feature","geometry":{"type":"Point","coordinates":[-6.803378,53.874264]},"properties":{"name":"Caremark (Consortium)","addr":"Unit 1, Block 13A, Ashbourne Business Park, Ashbourne, Co Meath. A84 KP96","county":"Meath","phone":"01 8353610","website":"www.caremark.ie","eircode":"A84 KP96","loc":"town"}},{"type":"Feature","geometry":{"type":"Point","coordinates":[-6.690109,53.275665]},"properties":{"name":"Right at Home","addr":"Charlotte House, Charlotte Street, Greatconnell, Newbridge, Co Kildare. W12 CY98","county":"Kildare","phone":"045 254244","website":"www.rightathome.ie","eircode":"W12 CY98","loc":"town"}},{"type":"Feature","geometry":{"type":"Point","coordinates":[-7.720261,53.096503]},"properties":{"name":"Irish Wheelchair Association","addr":"Toberleheen, Ballinagar, Tullamore, Co Offaly. R35 NX09","county":"Offaly","phone":"087 7777716","website":"www.iwa.ie","eircode":"R35 NX09","loc":"town"}},{"type":"Feature","geometry":{"type":"Point","coordinates":[-7.319221,53.026997]},"properties":{"name":"Caremark (Consortium)","addr":"Portlaoise Enterprise Centre, Clonminam Business Park, Portlaoise, Co Laois. R32 DW97","county":"Laois","phone":"057 8594956","website":"www.caremark.ie","eircode":"R32 DW97","loc":"address"}},{"type":"Feature","geometry":{"type":"Point","coordinates":[-6.945503,52.839404]},"properties":{"name":"Connected Health","addr":"Midland House, 27 Main Street, Portlaoise, Co Laois. R32 X04P","county":"Laois","phone":"057 8601200","website":"www.connected-health.ie","eircode":"R32 X04P","loc":"town"}},{"type":"Feature","geometry":{"type":"Point","coordinates":[-7.347856,53.55779]},"properties":{"name":"Atlantic Care","addr":"8 Oliver Plunkett Street, Mullingar, Co Westmeath. N91 WPT3 Main Street, Clane, Co Kildare. W91 Y2TF Laois Office","county":"Westmeath","phone":"044 9317102 085 1541832","website":"www.atlanticcare.ie","eircode":"N91 WPT3","loc":"county"}},{"type":"Feature","geometry":{"type":"Point","coordinates":[-6.818361,53.154458]},"properties":{"name":"Hibernia Home Care","addr":"Office Block B, Maynooth Business Campus, Maynooth, Co Kildare. W23 W5","county":"Kildare","phone":"045 254202","website":"www.hiberniahomecare.ie","eircode":"","loc":"county"}},{"type":"Feature","geometry":{"type":"Point","coordinates":[-7.517307,53.288307]},"properties":{"name":"Platinum Home Care","addr":"25J Axis Business Park, Tullamore, Co Offaly. R35 A6C5","county":"Offaly","phone":"083 4734994 / 044 9362190","website":"www.platinumhomecare.ie","eircode":"R35 A6C5","loc":"address"}},{"type":"Feature","geometry":{"type":"Point","coordinates":[-6.42435,53.247989]},"properties":{"name":"Be Independent Home Care","addr":"Arrow Offices, Old Belgard Road, Tallaght, Dublin 24. D24 ND70","county":"","phone":"01 8283030","website":"www.beindependenthomecare.ie","eircode":"D24 ND70","loc":"town"}},{"type":"Feature","geometry":{"type":"Point","coordinates":[-7.496155,53.27245]},"properties":{"name":"Comfort Keepers","addr":"Castle Buildings, Tara Street, Tullamore, Co Offaly. R35 E9K8","county":"Offaly","phone":"057 9327545","website":"www.comfortkeepers.ie","eircode":"R35 E9K8","loc":"address"}},{"type":"Feature","geometry":{"type":"Point","coordinates":[-7.299912,53.035]},"properties":{"name":"Bluebird Care (Kildare, Laois, Offaly)","addr":"26 Church Street, Portlaoise, Co Laois. R32 AKC5","county":"Laois","phone":"057 8666377","website":"www.bluebirdcare.ie","eircode":"R32 AKC5","loc":"address"}},{"type":"Feature","geometry":{"type":"Point","coordinates":[-6.818361,53.154458]},"properties":{"name":"Private Home Care","addr":"Units F&G, Wolfe Tone Street, Naas, Co Kildare. W91 A2YV2","county":"Kildare","phone":"01 2880000","website":"www.privatehomecare.ie","eircode":"","loc":"county"}},{"type":"Feature","geometry":{"type":"Point","coordinates":[-7.347856,53.55779]},"properties":{"name":"Dovida","addr":"Block B, Marlinstown Office Park, Mullingar, Co Westmeath. N91 Westmeath Office VW2D Main Street, Newbridge, Co Kildare. W12 VP63 Kildare Office","county":"Westmeath","phone":"044 9385260 045 446593","website":"www.dovida.ie","eircode":"W12 VP63","loc":"county"}},{"type":"Feature","geometry":{"type":"Point","coordinates":[-6.690109,53.275665]},"properties":{"name":"Comfort Keepers","addr":"Naas Industrial Estate, Fishery Lane, Naas, Co Kildare. W91 DT6W","county":"Kildare","phone":"045 874725","website":"www.comfortkeepers.ie","eircode":"W91 DT6W","loc":"town"}},{"type":"Feature","geometry":{"type":"Point","coordinates":[-6.818361,53.154458]},"properties":{"name":"Caremark (Consortium)","addr":"St David\u2019s House, North Main Street, Naas, Co Kildare. W91 T0FA Main Street, Newbridge, Co. Kildare. W12 VP63 Kildare Office","county":"Kildare","phone":"045 871166 045 446593","website":"www.caremark.ie","eircode":"W91 T0FA","loc":"county"}},{"type":"Feature","geometry":{"type":"Point","coordinates":[-6.381421,52.95821]},"properties":{"name":"Dovida (Consortium)","addr":"Unit E, Glencormack Business Park, Kilmacanogue, Co. Wicklow. A98 A6F9 Wicklow Office Block 3C, Millbank Business Park, Lucan, K78 F6K8 Dublin West Office","county":"Wicklow","phone":"01 2768122 01 4127812","website":"www.dovida.ie","eircode":"A98 A6F9","loc":"county"}},{"type":"Feature","geometry":{"type":"Point","coordinates":[-6.690109,53.275665]},"properties":{"name":"Care at Home Services","addr":"Hillview House, Kilcullen Road, Naas, Co. Kildare. W91DH04","county":"Kildare","phone":"045 876052","website":"www.careathomeservices.ie","eircode":"W91DH04","loc":"town"}},{"type":"Feature","geometry":{"type":"Point","coordinates":[-6.690109,53.275665]},"properties":{"name":"Manor Homecare","addr":"Head Office, Straffan Rd, Dowdstown, Maynooth, Co Kildare. W23 H028","county":"Kildare","phone":"045 856498 Approved Provider","website":"www.manorhomecare.ie","eircode":"W23 H028","loc":"town"}},{"type":"Feature","geometry":{"type":"Point","coordinates":[-6.690109,53.275665]},"properties":{"name":"Bluebird Care (Kildare, Laois, Offaly)","addr":"Abbey House, White Abbey Road, Kildare Town, Co Kildare. R51 A589","county":"Kildare","phone":"045 832978","website":"www.bluebirdcare.ie","eircode":"R51 A589","loc":"town"}},{"type":"Feature","geometry":{"type":"Point","coordinates":[-6.690109,53.275665]},"properties":{"name":"Hibernia Home Care","addr":"Block B, Maynooth Business Campus, Maynooth, Co Kildare. W23 W5X7","county":"Kildare","phone":"045 254202","website":"www.hiberniahomecare.ie","eircode":"W23 W5X7","loc":"town"}},{"type":"Feature","geometry":{"type":"Point","coordinates":[-6.183345,53.240942]},"properties":{"name":"Heritage Homecare","addr":"17 Sandyford Office Park, Blackthorn Avenue, Sandyford Business Park, Dublin 18. D18 NY74","county":"","phone":"01 2300020","website":"www.heritagehomecare.ie","eircode":"D18 NY74","loc":"town"}},{"type":"Feature","geometry":{"type":"Point","coordinates":[-6.42435,53.247989]},"properties":{"name":"Bluebird Care (Dublin & South West)","addr":"Unit 43/44, GD House, Whitestown Drive, Tallaght, Dublin 24. D24 N9EV","county":"","phone":"01 9131932","website":"www.bluebirdcare.ie","eircode":"D24 N9EV","loc":"town"}},{"type":"Feature","geometry":{"type":"Point","coordinates":[-6.301336,53.336692]},"properties":{"name":"Care for Me Homecare","addr":"5 St Agnes Road, Crumlin, Dublin 12. D12 E431","county":"","phone":"01 5163000","website":"www.careforme.ie","eircode":"D12 E431","loc":"town"}},{"type":"Feature","geometry":{"type":"Point","coordinates":[-6.301336,53.336692]},"properties":{"name":"Caremark (Consortium)","addr":"50A Sundrive Road, Kimmage, Dublin 12. D12 KTP9","county":"","phone":"01 4636006","website":"www.caremark.ie","eircode":"D12 KTP9","loc":"town"}},{"type":"Feature","geometry":{"type":"Point","coordinates":[-6.258201,53.298647]},"properties":{"name":"InisCare","addr":"Unit 3, Frankfort Centre, Dundrum Road, Dublin 14. D14 K584","county":"","phone":"01 6169747","website":"www.iniscare.ie","eircode":"D14 K584","loc":"town"}},{"type":"Feature","geometry":{"type":"Point","coordinates":[-6.2545,53.341125]},"properties":{"name":"Irish Wheelchair Association","addr":"Broadmeadows, Newcastle Road, Lucan, Co. Dublin.","county":"Dublin","phone":"087 1437796","website":"www.iwa.ie","eircode":"","loc":"town"}},{"type":"Feature","geometry":{"type":"Point","coordinates":[-6.301336,53.336692]},"properties":{"name":"Caregivers Ireland (Consortium)","addr":"Unit 8, Bridgecourt Office Park, Walkinstown Avenue, Dublin 12. D12 PY68","county":"","phone":"01 2530030","website":"www.caregiveresireland.ie","eircode":"D12 PY68","loc":"town"}},{"type":"Feature","geometry":{"type":"Point","coordinates":[-6.258201,53.298647]},"properties":{"name":"Pioneer Homecare","addr":"Ashfield House, Brookvale, Rathfarnham Road, Rathfarnham, Dublin 14. D14 W8Y1","county":"","phone":"01 4996100","website":"www.pioneerhomecare.ie","eircode":"D14 W8Y1","loc":"town"}},{"type":"Feature","geometry":{"type":"Point","coordinates":[-6.301336,53.336692]},"properties":{"name":"Hibernia Home Care","addr":"29 Ravensdale Park, Kimmage, Dublin 12. D12 Y50F","county":"","phone":"01 2337643","website":"www.hiberniahomecare.ie","eircode":"D12 Y50F","loc":"town"}}]}